[{"OBJECT_NAME":"TIANMU-1 16","OBJECT_ID":"2024-004B","EPOCH":"2026-03-09T23:11:35.492064","MEAN_MOTION":15.25874833,"ECCENTRICITY":0.00051977,"INCLINATION":97.4617,"RA_OF_ASC_NODE":254.5267,"ARG_OF_PERICENTER":355.4475,"MEAN_ANOMALY":4.6715,"EPHEMERIS_TYPE":0,"CLASSIFICATION_TYPE":"U","NORAD_CAT_ID":58701,"ELEMENT_SET_NO":999,"REV_AT_EPOCH":12064,"BSTAR":0.00031061517,"MEAN_MOTION_DOT":7.887e-5,"MEAN_MOTION_DDOT":0},{"OBJECT_NAME":"STARLINK-32490","OBJECT_ID":"2024-222N","EPOCH":"2026-03-09T05:41:54.322656","MEAN_MOTION":15.2758704,"ECCENTRICITY":0.00042875,"INCLINATION":43.0007,"RA_OF_ASC_NODE":138.4134,"ARG_OF_PERICENTER":293.8133,"MEAN_ANOMALY":66.2269,"EPHEMERIS_TYPE":0,"CLASSIFICATION_TYPE":"U","NORAD_CAT_ID":62126,"ELEMENT_SET_NO":999,"REV_AT_EPOCH":7268,"BSTAR":0.0010398952,"MEAN_MOTION_DOT":0.00028475,"MEAN_MOTION_DDOT":0}]
